OBJECT_NAME,OBJECT_ID,EPOCH,MEAN_MOTION,ECCENTRICITY,INCLINATION,RA_OF_ASC_NODE,ARG_OF_PERICENTER,MEAN_ANOMALY,EPHEMERIS_TYPE,CLASSIFICATION_TYPE,NORAD_CAT_ID,ELEMENT_SET_NO,REV_AT_EPOCH,BSTAR,MEAN_MOTION_DOT,MEAN_MOTION_DDOT
STARLINK-32913,2025-037X,2026-06-13T22:58:46.775712,14.98339065,.00028383,70.0032,111.6601,261.0208,99.0630,0,U,63098,999,7303,.21353496E-3,.2456E-4,0
STARLINK-11629 [DTC],2025-039A,2026-06-13T20:42:34.725024,15.70988436,.00017307,42.9983,16.9171,273.0940,86.9729,0,U,63104,999,7474,.13005437E-2,.17097E-2,0
STARLINK-11624 [DTC],2025-039B,2026-06-12T21:20:05.275680,15.70859209,.00024124,43.0031,23.3926,256.2307,103.8292,0,U,63105,999,7458,.35982592E-3,.46018E-3,0
STARLINK-11584 [DTC],2025-039C,2026-06-12T21:18:46.639584,15.70840856,.00017728,42.9992,23.3852,251.8337,108.2338,0,U,63106,999,7458,.16879046E-2,.222026E-2,0
STARLINK-11627 [DTC],2025-039D,2026-06-13T20:57:52.241184,15.70856687,.00021954,43.0024,16.9970,270.5666,89.4950,0,U,63107,999,7474,.12133728E-2,.15836E-2,0
STARLINK-11632 [DTC],2025-039E,2026-06-13T15:14:33.562752,15.70862900,.00027751,43.0014,18.6562,260.3084,99.7470,0,U,63108,999,7470,.11912353E-2,.155457E-2,0
STARLINK-11625 [DTC],2025-039F,2026-06-13T21:28:27.283008,15.70915265,.00014784,42.9993,17.1661,246.5017,113.5695,0,U,63109,999,7474,.18908984E-2,.250422E-2,0
STARLINK-11601 [DTC],2025-039G,2026-06-13T22:00:01.999584,15.70862891,.00015421,43.0004,16.8122,273.0487,301.3673,0,U,63110,999,593,-.46893452E-3,-.60243E-3,0
STARLINK-11630 [DTC],2025-039H,2026-06-12T21:11:08.016288,15.70935350,.00017825,43.0020,23.3424,244.3652,115.7032,0,U,63111,999,7458,.13599734E-2,.178569E-2,0
STARLINK-11590 [DTC],2025-039J,2026-06-12T21:26:25.567872,15.70848454,.00026778,43.0023,23.4247,274.3412,85.7150,0,U,63112,999,7458,.11813791E-2,.154046E-2,0
STARLINK-11598 [DTC],2025-039K,2026-06-13T15:06:53.811936,15.70944455,.00021828,42.9989,18.6137,303.6285,56.4374,0,U,63113,999,7470,.77947938E-3,.101245E-2,0
STARLINK-11600 [DTC],2025-039L,2026-06-13T20:50:13.400160,15.70872982,.00013685,42.9995,16.9507,247.8876,112.1846,0,U,63114,999,7474,.12458929E-2,.16281E-2,0
STARLINK-11597 [DTC],2025-039M,2026-06-13T20:34:56.037792,15.70998024,.00009935,42.9970,16.8663,109.0194,251.0781,0,U,63115,999,7474,.13977597E-2,.184151E-2,0
STARLINK-11591 [DTC],2025-039N,2026-06-12T18:30:45.638784,15.70886208,.00018793,43.0004,23.3358,249.8879,110.1787,0,U,63116,999,7457,.92112095E-3,.119695E-2,0
STARLINK-32955,2025-039P,2026-06-13T22:00:01.999584,15.65837822,.00185005,42.9876,169.8440,115.9404,8.9686,0,U,63117,999,593,.42159405E-2,.469406E-2,0
STARLINK-32945,2025-039Q,2026-06-13T18:35:45.434688,15.27602412,.00015679,43.0007,189.9831,266.3277,93.7395,0,U,63118,999,7276,.50689586E-3,.13722E-3,0
STARLINK-32941,2025-039R,2026-06-13T07:42:13.199040,15.27616491,.00007954,43.0010,181.3333,233.6497,126.4281,0,U,63119,999,7282,.87073659E-3,.23803E-3,0
STARLINK-32942,2025-039S,2026-06-13T18:44:59.847936,15.27596950,.00021677,42.9959,190.0276,266.9846,93.0758,0,U,63120,999,7276,.69281144E-3,.18862E-3,0
STARLINK-32947,2025-039T,2026-06-13T08:33:50.391072,15.27613506,.00004163,42.9949,191.9992,163.0472,197.0394,0,U,63121,999,7270,.59241538E-3,.16092E-3,0
STARLINK-32961,2025-039U,2026-06-13T19:01:39.037152,15.27601856,.00026029,43.0024,190.1196,269.4581,90.5973,0,U,63122,999,7276,.81399754E-3,.22221E-3,0
STARLINK-32948,2025-039V,2026-06-13T18:50:32.932032,15.27595788,.00031703,42.9978,190.0617,266.4562,93.5927,0,U,63123,999,7276,.68096679E-3,.18534E-3,0
STARLINK-32957,2025-039W,2026-06-13T19:10:55.100640,15.27594667,.00002865,42.9999,190.1688,162.1736,197.9126,0,U,63124,999,7276,.67217352E-3,.18289E-3,0
STARLINK-11609 [DTC],2025-043A,2026-06-13T21:48:05.943168,15.70893978,.00008559,42.9980,30.8502,236.2509,123.8277,0,U,63132,999,7459,.11670937E-2,.152427E-2,0
STARLINK-11604 [DTC],2025-043B,2026-06-13T22:18:40.839840,15.70911391,.00011902,42.9988,31.0194,253.4609,106.6128,0,U,63133,999,7448,.16215227E-2,.213691E-2,0
STARLINK-11605 [DTC],2025-043C,2026-06-13T21:55:44.592384,15.70899181,.00007323,42.9970,30.8938,221.4603,138.6209,0,U,63134,999,7448,.1504216E-2,.197715E-2,0
STARLINK-11610 [DTC],2025-043D,2026-06-13T22:03:23.345280,15.70923323,.00015007,42.9981,30.9349,251.6749,108.3956,0,U,63135,999,7448,.14307723E-2,.188008E-2,0
STARLINK-11613 [DTC],2025-043E,2026-06-13T22:11:02.046336,15.70928852,.00010677,42.9990,30.9752,239.4947,120.5815,0,U,63136,999,7460,.13640027E-2,.179059E-2,0
STARLINK-11616 [DTC],2025-043F,2026-06-13T00:00:02.000160,15.70852433,.00016969,43.0012,35.8914,263.7513,168.4372,0,U,63137,999,600,-.55895528E-3,-.71595E-3,0
STARLINK-11611 [DTC],2025-043G,2026-06-12T22:31:45.397632,15.70863315,.0001229,42.9997,36.4689,230.8055,129.2704,0,U,63138,999,7445,.12334192E-2,.161076E-2,0
