STARLINK-32913          
1 63098U 25037X   26164.95748583  .00002456  00000+0  21353-3 0  9994
2 63098  70.0032 111.6601 0002838 261.0208  99.0630 14.98339065 73034
STARLINK-11629 [DTC]    
1 63104U 25039A   26164.86290191  .00170970  00000+0  13005-2 0  9992
2 63104  42.9983  16.9171 0001730 273.0940  86.9729 15.70988436 74746
STARLINK-11624 [DTC]    
1 63105U 25039B   26163.88894995  .00046018  00000+0  35983-3 0  9991
2 63105  43.0031  23.3926 0002412 256.2307 103.8292 15.70859209 74582
STARLINK-11584 [DTC]    
1 63106U 25039C   26163.88803981  .00222026  00000+0  16879-2 0  9994
2 63106  42.9992  23.3852 0001772 251.8337 108.2338 15.70840856 74585
STARLINK-11627 [DTC]    
1 63107U 25039D   26164.87352131  .00158360  00000+0  12134-2 0  9990
2 63107  43.0024  16.9970 0002195 270.5666  89.4950 15.70856687 74743
STARLINK-11632 [DTC]    
1 63108U 25039E   26164.63511068  .00155457  00000+0  11912-2 0  9998
2 63108  43.0014  18.6562 0002775 260.3084  99.7470 15.70862900 74706
STARLINK-11625 [DTC]    
1 63109U 25039F   26164.89476022  .00250422  00000+0  18909-2 0  9998
2 63109  42.9993  17.1661 0001478 246.5017 113.5695 15.70915265 74747
STARLINK-11601 [DTC]    
1 63110U 25039G   26164.91668981 -.00060243  00000+0 -46893-3 0  9996
2 63110  43.0004  16.8122 0001542 273.0487 301.3673 15.70862891  5934
STARLINK-11630 [DTC]    
1 63111U 25039H   26163.88273167  .00178569  00000+0  13600-2 0  9998
2 63111  43.0020  23.3424 0001782 244.3652 115.7032 15.70935350 74586
STARLINK-11590 [DTC]    
1 63112U 25039J   26163.89335148  .00154046  00000+0  11814-2 0  9997
2 63112  43.0023  23.4247 0002677 274.3412  85.7150 15.70848454 74580
STARLINK-11598 [DTC]    
1 63113U 25039K   26164.62978949  .00101245  00000+0  77948-3 0  9996
2 63113  42.9989  18.6137 0002182 303.6285  56.4374 15.70944455 74704
STARLINK-11600 [DTC]    
1 63114U 25039L   26164.86821065  .00162810  00000+0  12459-2 0  9999
2 63114  42.9995  16.9507 0001368 247.8876 112.1846 15.70872982 74747
STARLINK-11597 [DTC]    
1 63115U 25039M   26164.85759303  .00184151  00000+0  13978-2 0  9993
2 63115  42.9970  16.8663 0000993 109.0194 251.0781 15.70998024 74745
STARLINK-11591 [DTC]    
1 63116U 25039N   26163.77136156  .00119695  00000+0  92112-3 0  9998
2 63116  43.0004  23.3358 0001879 249.8879 110.1787 15.70886208 74579
STARLINK-32955          
1 63117U 25039P   26164.91668981  .00469406  00000+0  42159-2 0  9995
2 63117  42.9876 169.8440 0018500 115.9404   8.9686 15.65837822  5937
STARLINK-32945          
1 63118U 25039Q   26164.77483142  .00013722  00000+0  50690-3 0  9990
2 63118  43.0007 189.9831 0001567 266.3277  93.7395 15.27602412 72764
STARLINK-32941          
1 63119U 25039R   26164.32098610  .00023803  00000+0  87074-3 0  9991
2 63119  43.0010 181.3333 0000795 233.6497 126.4281 15.27616491 72822
STARLINK-32942          
1 63120U 25039S   26164.78124824  .00018862  00000+0  69281-3 0  9999
2 63120  42.9959 190.0276 0002167 266.9846  93.0758 15.27596950 72767
STARLINK-32947          
1 63121U 25039T   26164.35683323  .00016092  00000+0  59242-3 0  9996
2 63121  42.9949 191.9992 0000416 163.0472 197.0394 15.27613506 72701
STARLINK-32961          
1 63122U 25039U   26164.79281293  .00022221  00000+0  81400-3 0  9997
2 63122  43.0024 190.1196 0002602 269.4581  90.5973 15.27601856 72767
STARLINK-32948          
1 63123U 25039V   26164.78510338  .00018534  00000+0  68097-3 0  9991
2 63123  42.9978 190.0617 0003170 266.4562  93.5927 15.27595788 72766
STARLINK-32957          
1 63124U 25039W   26164.79924885  .00018289  00000+0  67217-3 0  9999
2 63124  42.9999 190.1688 0000286 162.1736 197.9126 15.27594667 72764
STARLINK-11609 [DTC]    
1 63132U 25043A   26164.90840212  .00152427  00000+0  11671-2 0  9992
2 63132  42.9980  30.8502 0000855 236.2509 123.8277 15.70893978 74594
STARLINK-11604 [DTC]    
1 63133U 25043B   26164.92963935  .00213691  00000+0  16215-2 0  9993
2 63133  42.9988  31.0194 0001190 253.4609 106.6128 15.70911391 74480
STARLINK-11605 [DTC]    
1 63134U 25043C   26164.91371056  .00197715  00000+0  15042-2 0  9995
2 63134  42.9970  30.8938 0000732 221.4603 138.6209 15.70899181 74482
STARLINK-11610 [DTC]    
1 63135U 25043D   26164.91902020  .00188008  00000+0  14308-2 0  9996
2 63135  42.9981  30.9349 0001500 251.6749 108.3956 15.70923323 74481
STARLINK-11613 [DTC]    
1 63136U 25043E   26164.92432924  .00179059  00000+0  13640-2 0  9993
2 63136  42.9990  30.9752 0001067 239.4947 120.5815 15.70928852 74608
STARLINK-11616 [DTC]    
1 63137U 25043F   26164.00002315 -.00071595  00000+0 -55896-3 0  9998
2 63137  43.0012  35.8914 0001696 263.7513 168.4372 15.70852433  6006
STARLINK-11611 [DTC]    
1 63138U 25043G   26163.93871988  .00161076  00000+0  12334-2 0  9991
2 63138  42.9997  36.4689 0001229 230.8055 129.2704 15.70863315 74450
